INMARSAT GX5            
1 44801U 19080B   26169.18411852  .00000069  00000+0  00000+0 0  9992
2 44801   0.0348 358.9552 0002317 103.5149 241.2821  1.00273425  6793
JCSAT-18 (KACIFIC 1)    
1 44868U 19091A   26169.62753024 -.00000208  00000+0  00000+0 0  9992
2 44868   0.0377 209.0411 0000355  52.0350  21.6805  1.00268663 24026
ELEKTRO-L 3             
1 44903U 19095A   26169.78714773 -.00000102  00000+0  00000+0 0  9994
2 44903   0.2622  81.5257 0000943 352.7120 192.1106  1.00271360 23722
SHIJIAN-20 (SJ-20)      
1 44910U 19097A   26169.62647102  .00000129  00000+0  00000+0 0  9996
2 44910   4.9232  75.0454 0015888  52.1944  49.9555  1.00246992 23713
TJS-5                   
1 44978U 20002A   26169.71838328 -.00000348  00000+0  00000+0 0  9994
2 44978   0.0118 343.3913 0007578  63.8220 225.8559  1.00271573 23724
GSAT-30                 
1 45026U 20005A   26169.62620470 -.00000170  00000+0  00000+0 0  9992
2 45026   0.0287 259.9147 0003250 183.4489 131.9161  1.00266602 23527
EUTELSAT KONNECT        
1 45027U 20005B   26169.53976661  .00000043  00000+0  00000+0 0  9997
2 45027   0.0735  95.3855 0001311 137.6450 235.2733  1.00268521 24356
JCSAT-17                
1 45245U 20013A   26169.67629134 -.00000324  00000+0  00000+0 0  9996
2 45245   5.3922 356.8958 0002565  87.3886 202.1099  1.00271027 23249
GEO-KOMPSAT-2B          
1 45246U 20013B   26169.68768145 -.00000350  00000+0  00000+0 0  9993
2 45246   0.0464 193.1962 0000717  74.7101  14.8365  1.00269219 23296
BEIDOU-3 G2             
1 45344U 20017A   26169.79013429 -.00000148  00000+0  00000+0 0  9991
2 45344   2.8679  47.3874 0002026  33.3913 190.7743  1.00271732 23277
AEHF-6 (USA 298)        
1 45465U 20022B   26169.63696251 -.00000304  00000+0  00000+0 0  9998
2 45465   2.5445 301.1839 0043093  17.0750 315.6958  1.00270875 23024
BEIDOU-3 G3             
1 45807U 20040A   26169.63157807 -.00000360  00000+0  00000+0 0  9999
2 45807   2.4515  67.4513 0002351 336.6130 200.6405  1.00265631 22085
APSTAR-6D               
1 45863U 20045A   26169.20842084 -.00000323  00000+0  00000+0 0  9996
2 45863   0.0507  93.7298 0002272 351.0752  30.7172  1.00271950 21877
KOREASAT 116            
1 45920U 20048A   26169.62194676 -.00000368  00000+0  00000+0 0  9995
2 45920   0.0183 302.1430 0000852 177.4503 127.3493  1.00268454 21652
EXPRESS 103             
1 45985U 20053A   26169.62880472 -.00000287  00000+0  00000+0 0  9998
2 45985   0.0121 293.1489 0000488 355.8508 300.7353  1.00271616 21667
EXPRESS 80              
1 45986U 20053B   26169.03816006  .00000000  00000+0  00000+0 0  9998
2 45986   0.0243 318.7050 0001740 214.6743 186.6231  1.00270069 21630
BSAT-4B                 
1 46112U 20056A   26169.68296115 -.00000356  00000+0  00000+0 0  9992
2 46112   0.0543 142.3495 0004010 332.4980 147.7633  1.00271021 21402
MEV-2                   
1 46113U 20056B   26169.60952243 -.00000017  00000+0  00000+0 0  9990
2 46113   0.0170 305.3898 0000089 226.0866 313.7894  1.00271494 80571
GALAXY 30 (G-30)        
1 46114U 20056C   26169.65628434  .00000030  00000+0  00000+0 0  9992
2 46114   0.0165 349.8313 0002166  96.1871 292.1283  1.00272111 21306
GAOFEN-13 01            
1 46610U 20071A   26169.71270774 -.00000369  00000+0  00000+0 0  9993
2 46610   0.5263  84.8373 0041379 123.6581  73.2359  1.00269820 20939
TIANTONG-1 2            
1 46916U 20082A   26169.63864277 -.00000362  00000+0  00000+0 0  9995
2 46916   0.7881 327.7799 0001008 108.3709 185.5507  1.00268653 20669
LUCAS (JDRS-1)          
1 47202U 20089A   26169.71621465 -.00000241  00000+0  00000+0 0  9996
2 47202   0.0540 273.7775 0002294 149.9865 191.8149  1.00269492 20438
SXM-7                   
1 47240U 20096A   26169.59288235 -.00000211  00000+0  00000+0 0  9993
2 47240   0.0317  97.5874 0003739  25.9654 271.5528  1.00271782  7457
CMS-01                  
1 47256U 20099A   26169.66785851 -.00000171  00000+0  00000+0 0  9992
2 47256   0.1026  94.0242 0003604 181.7291 314.5721  1.00271904 20210
TURKSAT 5A              
1 47306U 21001A   26169.61584912  .00000148  00000+0  00000+0 0  9995
2 47306   0.0190  60.7109 0000213 280.2107 178.5662  1.00270942 19988
TIANTONG-1 3            
1 47321U 21003A   26169.41203567 -.00000160  00000+0  00000+0 0  9991
2 47321   1.7555 339.4100 0003005 113.1723  43.9300  1.00270129 19975
TJS-6                   
1 47613U 21010A   26169.64510429  .00000036  00000+0  00000+0 0  9997
2 47613   0.2466 264.1361 0002941 225.6406 187.8163  1.00269757 19826
SBIRS GEO-5 (USA 315)   
1 48618U 21042A   26169.67496984 -.00000275  00000+0  00000+0 0  9996
2 48618   5.1013 329.1484 0001370 121.4822 153.0755  1.00270946 18780
FENGYUN 4B              
1 48808U 21047A   26169.68179424 -.00000337  00000+0  00000+0 0  9999
2 48808   0.1576  77.7004 0005947 275.7952 263.5197  1.00276020 18589
SXM-8                   
1 48838U 21049A   26169.59288235 -.00000211  00000+0  00000+0 0  9996
2 48838   0.0190  19.6988 0005041  11.6111   3.8043  1.00270092 18597
TIANLIAN 1-05           
1 49011U 21063A   26169.73824134  .00000101  00000+0  00000+0 0  9993
2 49011   1.5988  80.6926 0000496 343.1980 125.6492  1.00271855 18092
STAR ONE D2             
1 49055U 21069A   26169.52459987  .00000000  00000+0  00000+0 0  9992
2 49055   0.0158 338.7903 0002224 133.2448 273.4828  1.00271938 17954
