OBJECT_NAME,OBJECT_ID,EPOCH,MEAN_MOTION,ECCENTRICITY,INCLINATION,RA_OF_ASC_NODE,ARG_OF_PERICENTER,MEAN_ANOMALY,EPHEMERIS_TYPE,CLASSIFICATION_TYPE,NORAD_CAT_ID,ELEMENT_SET_NO,REV_AT_EPOCH,BSTAR,MEAN_MOTION_DOT,MEAN_MOTION_DDOT
INMARSAT GX5,2019-080B,2026-06-18T04:25:07.840128,1.00273425,.00023171,0.0348,358.9552,103.5149,241.2821,0,U,44801,999,679,0,.69E-6,0
JCSAT-18 (KACIFIC 1),2019-091A,2026-06-18T15:03:38.612736,1.00268663,.0000355,0.0377,209.0411,52.0350,21.6805,0,U,44868,999,2402,0,-.208E-5,0
ELEKTRO-L 3,2019-095A,2026-06-18T18:53:29.563872,1.00271360,.0000943,0.2622,81.5257,352.7120,192.1106,0,U,44903,999,2372,0,-.102E-5,0
SHIJIAN-20 (SJ-20),2019-097A,2026-06-18T15:02:07.096128,1.00246992,.0015888,4.9232,75.0454,52.1944,49.9555,0,U,44910,999,2371,0,.129E-5,0
TJS-5,2020-002A,2026-06-18T17:14:28.315392,1.00271573,.0007578,0.0118,343.3913,63.8220,225.8559,0,U,44978,999,2372,0,-.348E-5,0
GSAT-30,2020-005A,2026-06-18T15:01:44.086080,1.00266602,.000325,0.0287,259.9147,183.4489,131.9161,0,U,45026,999,2352,0,-.17E-5,0
EUTELSAT KONNECT,2020-005B,2026-06-18T12:57:15.835104,1.00268521,.0001311,0.0735,95.3855,137.6450,235.2733,0,U,45027,999,2435,0,.43E-6,0
JCSAT-17,2020-013A,2026-06-18T16:13:51.571776,1.00271027,.0002565,5.3922,356.8958,87.3886,202.1099,0,U,45245,999,2324,0,-.324E-5,0
GEO-KOMPSAT-2B,2020-013B,2026-06-18T16:30:15.677280,1.00269219,.0000717,0.0464,193.1962,74.7101,14.8365,0,U,45246,999,2329,0,-.35E-5,0
BEIDOU-3 G2,2020-017A,2026-06-18T18:57:47.602656,1.00271732,.0002026,2.8679,47.3874,33.3913,190.7743,0,U,45344,999,2327,0,-.148E-5,0
AEHF-6 (USA 298),2020-022B,2026-06-18T15:17:13.560864,1.00270875,.0043093,2.5445,301.1839,17.0750,315.6958,0,U,45465,999,2302,0,-.304E-5,0
BEIDOU-3 G3,2020-040A,2026-06-18T15:09:28.345248,1.00265631,.0002351,2.4515,67.4513,336.6130,200.6405,0,U,45807,999,2208,0,-.36E-5,0
APSTAR-6D,2020-045A,2026-06-18T05:00:07.560576,1.00271950,.00022729,0.0507,93.7298,351.0752,30.7172,0,U,45863,999,2187,0,-.323E-5,0
KOREASAT 116,2020-048A,2026-06-18T14:55:36.200064,1.00268454,.0000852,0.0183,302.1430,177.4503,127.3493,0,U,45920,999,2165,0,-.368E-5,0
EXPRESS 103,2020-053A,2026-06-18T15:05:28.727808,1.00271616,.0000488,0.0121,293.1489,355.8508,300.7353,0,U,45985,999,2166,0,-.287E-5,0
EXPRESS 80,2020-053B,2026-06-18T00:54:57.029184,1.00270069,.00017401,0.0243,318.7050,214.6743,186.6231,0,U,45986,999,2163,0,0,0
BSAT-4B,2020-056A,2026-06-18T16:23:27.843360,1.00271021,.000401,0.0543,142.3495,332.4980,147.7633,0,U,46112,999,2140,0,-.356E-5,0
MEV-2,2020-056B,2026-06-18T14:37:42.737952,1.00271494,.0000089,0.0170,305.3898,226.0866,313.7894,0,U,46113,999,8057,0,-.17E-6,0
GALAXY 30 (G-30),2020-056C,2026-06-18T15:45:02.966976,1.00272111,.0002166,0.0165,349.8313,96.1871,292.1283,0,U,46114,999,2130,0,.3E-6,0
GAOFEN-13 01,2020-071A,2026-06-18T17:06:17.948736,1.00269820,.0041379,0.5263,84.8373,123.6581,73.2359,0,U,46610,999,2093,0,-.369E-5,0
TIANTONG-1 2,2020-082A,2026-06-18T15:19:38.735328,1.00268653,.0001008,0.7881,327.7799,108.3709,185.5507,0,U,46916,999,2066,0,-.362E-5,0
LUCAS (JDRS-1),2020-089A,2026-06-18T17:11:20.945760,1.00269492,.0002294,0.0540,273.7775,149.9865,191.8149,0,U,47202,999,2043,0,-.241E-5,0
SXM-7,2020-096A,2026-06-18T14:13:45.035040,1.00271782,.0003739,0.0317,97.5874,25.9654,271.5528,0,U,47240,999,745,0,-.211E-5,0
CMS-01,2020-099A,2026-06-18T16:01:42.975264,1.00271904,.0003604,0.1026,94.0242,181.7291,314.5721,0,U,47256,999,2021,0,-.171E-5,0
TURKSAT 5A,2021-001A,2026-06-18T14:46:49.363968,1.00270942,.0000213,0.0190,60.7109,280.2107,178.5662,0,U,47306,999,1998,0,.148E-5,0
TIANTONG-1 3,2021-003A,2026-06-18T09:53:19.881888,1.00270129,.0003005,1.7555,339.4100,113.1723,43.9300,0,U,47321,999,1997,0,-.16E-5,0
TJS-6,2021-010A,2026-06-18T15:28:57.010656,1.00269757,.0002941,0.2466,264.1361,225.6406,187.8163,0,U,47613,999,1982,0,.36E-6,0
SBIRS GEO-5 (USA 315),2021-042A,2026-06-18T16:11:57.394176,1.00270946,.000137,5.1013,329.1484,121.4822,153.0755,0,U,48618,999,1878,0,-.275E-5,0
FENGYUN 4B,2021-047A,2026-06-18T16:21:47.022336,1.00276020,.0005947,0.1576,77.7004,275.7952,263.5197,0,U,48808,999,1858,0,-.337E-5,0
SXM-8,2021-049A,2026-06-18T14:13:45.035040,1.00270092,.0005041,0.0190,19.6988,11.6111,3.8043,0,U,48838,999,1859,0,-.211E-5,0
TIANLIAN 1-05,2021-063A,2026-06-18T17:43:04.051776,1.00271855,.0000496,1.5988,80.6926,343.1980,125.6492,0,U,49011,999,1809,0,.101E-5,0
STAR ONE D2,2021-069A,2026-06-18T12:35:25.428768,1.00271938,.0002224,0.0158,338.7903,133.2448,273.4828,0,U,49055,999,1795,0,0,0
